<?xml version="1.0" encoding="UTF-8"?>
<ndm xmlns:xsi="http://www.w3.org/2001/XMLSchema-instance" xsi:noNamespaceSchemaLocation="https://sanaregistry.org/r/ndmxml_unqualified/ndmxml-2.0.0-master-2.0.xsd">
<omm id="CCSDS_OMM_VERS" version="2.0">
<header><CREATION_DATE/><ORIGINATOR/></header><body><segment><metadata><OBJECT_NAME>KUIPER-00095</OBJECT_NAME><OBJECT_ID>2025-171C</OBJECT_ID><CENTER_NAME>EARTH</CENTER_NAME><REF_FRAME>TEME</REF_FRAME><TIME_SYSTEM>UTC</TIME_SYSTEM><MEAN_ELEMENT_THEORY>SGP4</MEAN_ELEMENT_THEORY></metadata><data><meanElements><EPOCH>2025-09-18T11:12:45.976320</EPOCH><MEAN_MOTION>15.35918830</MEAN_MOTION><ECCENTRICITY>.00039749</ECCENTRICITY><INCLINATION>51.8740</INCLINATION><RA_OF_ASC_NODE>221.7557</RA_OF_ASC_NODE><ARG_OF_PERICENTER>298.8651</ARG_OF_PERICENTER><MEAN_ANOMALY>61.1936</MEAN_ANOMALY></meanElements><tleParameters><EPHEMERIS_TYPE>0</EPHEMERIS_TYPE><CLASSIFICATION_TYPE>U</CLASSIFICATION_TYPE><NORAD_CAT_ID>65134</NORAD_CAT_ID><ELEMENT_SET_NO>999</ELEMENT_SET_NO><REV_AT_EPOCH>708</REV_AT_EPOCH><BSTAR>.94697349E-3</BSTAR><MEAN_MOTION_DOT>.33388E-3</MEAN_MOTION_DOT><MEAN_MOTION_DDOT>0</MEAN_MOTION_DDOT></tleParameters></data></segment></body></omm>
<omm id="CCSDS_OMM_VERS" version="2.0">
<header><CREATION_DATE/><ORIGINATOR/></header><body><segment><metadata><OBJECT_NAME>KUIPER-00096</OBJECT_NAME><OBJECT_ID>2025-171D</OBJECT_ID><CENTER_NAME>EARTH</CENTER_NAME><REF_FRAME>TEME</REF_FRAME><TIME_SYSTEM>UTC</TIME_SYSTEM><MEAN_ELEMENT_THEORY>SGP4</MEAN_ELEMENT_THEORY></metadata><data><meanElements><EPOCH>2025-09-17T06:57:21.906432</EPOCH><MEAN_MOTION>15.36234708</MEAN_MOTION><ECCENTRICITY>.0003839</ECCENTRICITY><INCLINATION>51.8712</INCLINATION><RA_OF_ASC_NODE>227.3641</RA_OF_ASC_NODE><ARG_OF_PERICENTER>270.4277</ARG_OF_PERICENTER><MEAN_ANOMALY>89.6270</MEAN_ANOMALY></meanElements><tleParameters><EPHEMERIS_TYPE>0</EPHEMERIS_TYPE><CLASSIFICATION_TYPE>U</CLASSIFICATION_TYPE><NORAD_CAT_ID>65135</NORAD_CAT_ID><ELEMENT_SET_NO>999</ELEMENT_SET_NO><REV_AT_EPOCH>690</REV_AT_EPOCH><BSTAR>.11476919E-2</BSTAR><MEAN_MOTION_DOT>.41004E-3</MEAN_MOTION_DOT><MEAN_MOTION_DDOT>0</MEAN_MOTION_DDOT></tleParameters></data></segment></body></omm>
<omm id="CCSDS_OMM_VERS" version="2.0">
<header><CREATION_DATE/><ORIGINATOR/></header><body><segment><metadata><OBJECT_NAME>KUIPER-00097</OBJECT_NAME><OBJECT_ID>2025-171E</OBJECT_ID><CENTER_NAME>EARTH</CENTER_NAME><REF_FRAME>TEME</REF_FRAME><TIME_SYSTEM>UTC</TIME_SYSTEM><MEAN_ELEMENT_THEORY>SGP4</MEAN_ELEMENT_THEORY></metadata><data><meanElements><EPOCH>2025-09-18T11:14:44.362464</EPOCH><MEAN_MOTION>15.35886715</MEAN_MOTION><ECCENTRICITY>.00034018</ECCENTRICITY><INCLINATION>51.8709</INCLINATION><RA_OF_ASC_NODE>221.7645</RA_OF_ASC_NODE><ARG_OF_PERICENTER>299.4593</ARG_OF_PERICENTER><MEAN_ANOMALY>60.6054</MEAN_ANOMALY></meanElements><tleParameters><EPHEMERIS_TYPE>0</EPHEMERIS_TYPE><CLASSIFICATION_TYPE>U</CLASSIFICATION_TYPE><NORAD_CAT_ID>65136</NORAD_CAT_ID><ELEMENT_SET_NO>999</ELEMENT_SET_NO><REV_AT_EPOCH>707</REV_AT_EPOCH><BSTAR>.83322467E-3</BSTAR><MEAN_MOTION_DOT>.29283E-3</MEAN_MOTION_DOT><MEAN_MOTION_DDOT>0</MEAN_MOTION_DDOT></tleParameters></data></segment></body></omm>
<omm id="CCSDS_OMM_VERS" version="2.0">
<header><CREATION_DATE/><ORIGINATOR/></header><body><segment><metadata><OBJECT_NAME>KUIPER-00098</OBJECT_NAME><OBJECT_ID>2025-171F</OBJECT_ID><CENTER_NAME>EARTH</CENTER_NAME><REF_FRAME>TEME</REF_FRAME><TIME_SYSTEM>UTC</TIME_SYSTEM><MEAN_ELEMENT_THEORY>SGP4</MEAN_ELEMENT_THEORY></metadata><data><meanElements><EPOCH>2025-09-18T07:44:20.779008</EPOCH><MEAN_MOTION>15.36482624</MEAN_MOTION><ECCENTRICITY>.00046023</ECCENTRICITY><INCLINATION>51.8739</INCLINATION><RA_OF_ASC_NODE>222.2928</RA_OF_ASC_NODE><ARG_OF_PERICENTER>253.8224</ARG_OF_PERICENTER><MEAN_ANOMALY>106.2256</MEAN_ANOMALY></meanElements><tleParameters><EPHEMERIS_TYPE>0</EPHEMERIS_TYPE><CLASSIFICATION_TYPE>U</CLASSIFICATION_TYPE><NORAD_CAT_ID>65137</NORAD_CAT_ID><ELEMENT_SET_NO>999</ELEMENT_SET_NO><REV_AT_EPOCH>640</REV_AT_EPOCH><BSTAR>.13078969E-2</BSTAR><MEAN_MOTION_DOT>.47201E-3</MEAN_MOTION_DOT><MEAN_MOTION_DDOT>0</MEAN_MOTION_DDOT></tleParameters></data></segment></body></omm>
<omm id="CCSDS_OMM_VERS" version="2.0">
<header><CREATION_DATE/><ORIGINATOR/></header><body><segment><metadata><OBJECT_NAME>KUIPER-00099</OBJECT_NAME><OBJECT_ID>2025-171G</OBJECT_ID><CENTER_NAME>EARTH</CENTER_NAME><REF_FRAME>TEME</REF_FRAME><TIME_SYSTEM>UTC</TIME_SYSTEM><MEAN_ELEMENT_THEORY>SGP4</MEAN_ELEMENT_THEORY></metadata><data><meanElements><EPOCH>2025-09-18T07:47:50.301600</EPOCH><MEAN_MOTION>15.36471387</MEAN_MOTION><ECCENTRICITY>.00049483</ECCENTRICITY><INCLINATION>51.8754</INCLINATION><RA_OF_ASC_NODE>222.3094</RA_OF_ASC_NODE><ARG_OF_PERICENTER>259.2329</ARG_OF_PERICENTER><MEAN_ANOMALY>100.8100</MEAN_ANOMALY></meanElements><tleParameters><EPHEMERIS_TYPE>0</EPHEMERIS_TYPE><CLASSIFICATION_TYPE>U</CLASSIFICATION_TYPE><NORAD_CAT_ID>65138</NORAD_CAT_ID><ELEMENT_SET_NO>999</ELEMENT_SET_NO><REV_AT_EPOCH>705</REV_AT_EPOCH><BSTAR>.8741063E-3</BSTAR><MEAN_MOTION_DOT>.31341E-3</MEAN_MOTION_DOT><MEAN_MOTION_DDOT>0</MEAN_MOTION_DDOT></tleParameters></data></segment></body></omm>
<omm id="CCSDS_OMM_VERS" version="2.0">
<header><CREATION_DATE/><ORIGINATOR/></header><body><segment><metadata><OBJECT_NAME>KUIPER-00100</OBJECT_NAME><OBJECT_ID>2025-171H</OBJECT_ID><CENTER_NAME>EARTH</CENTER_NAME><REF_FRAME>TEME</REF_FRAME><TIME_SYSTEM>UTC</TIME_SYSTEM><MEAN_ELEMENT_THEORY>SGP4</MEAN_ELEMENT_THEORY></metadata><data><meanElements><EPOCH>2025-09-17T06:56:26.087712</EPOCH><MEAN_MOTION>15.36175027</MEAN_MOTION><ECCENTRICITY>.00042078</ECCENTRICITY><INCLINATION>51.8710</INCLINATION><RA_OF_ASC_NODE>227.3605</RA_OF_ASC_NODE><ARG_OF_PERICENTER>269.7270</ARG_OF_PERICENTER><MEAN_ANOMALY>90.3234</MEAN_ANOMALY></meanElements><tleParameters><EPHEMERIS_TYPE>0</EPHEMERIS_TYPE><CLASSIFICATION_TYPE>U</CLASSIFICATION_TYPE><NORAD_CAT_ID>65139</NORAD_CAT_ID><ELEMENT_SET_NO>999</ELEMENT_SET_NO><REV_AT_EPOCH>689</REV_AT_EPOCH><BSTAR>.11787537E-2</BSTAR><MEAN_MOTION_DOT>.42051E-3</MEAN_MOTION_DOT><MEAN_MOTION_DDOT>0</MEAN_MOTION_DDOT></tleParameters></data></segment></body></omm>
<omm id="CCSDS_OMM_VERS" version="2.0">
<header><CREATION_DATE/><ORIGINATOR/></header><body><segment><metadata><OBJECT_NAME>KUIPER-00102</OBJECT_NAME><OBJECT_ID>2025-171J</OBJECT_ID><CENTER_NAME>EARTH</CENTER_NAME><REF_FRAME>TEME</REF_FRAME><TIME_SYSTEM>UTC</TIME_SYSTEM><MEAN_ELEMENT_THEORY>SGP4</MEAN_ELEMENT_THEORY></metadata><data><meanElements><EPOCH>2025-09-18T06:32:37.614912</EPOCH><MEAN_MOTION>15.35867666</MEAN_MOTION><ECCENTRICITY>.00055729</ECCENTRICITY><INCLINATION>51.8789</INCLINATION><RA_OF_ASC_NODE>222.6994</RA_OF_ASC_NODE><ARG_OF_PERICENTER>275.2406</ARG_OF_PERICENTER><MEAN_ANOMALY>84.7944</MEAN_ANOMALY></meanElements><tleParameters><EPHEMERIS_TYPE>0</EPHEMERIS_TYPE><CLASSIFICATION_TYPE>U</CLASSIFICATION_TYPE><NORAD_CAT_ID>65140</NORAD_CAT_ID><ELEMENT_SET_NO>999</ELEMENT_SET_NO><REV_AT_EPOCH>704</REV_AT_EPOCH><BSTAR>.81862133E-3</BSTAR><MEAN_MOTION_DOT>.28751E-3</MEAN_MOTION_DOT><MEAN_MOTION_DDOT>0</MEAN_MOTION_DDOT></tleParameters></data></segment></body></omm>
<omm id="CCSDS_OMM_VERS" version="2.0">
<header><CREATION_DATE/><ORIGINATOR/></header><body><segment><metadata><OBJECT_NAME>KUIPER-00103</OBJECT_NAME><OBJECT_ID>2025-171K</OBJECT_ID><CENTER_NAME>EARTH</CENTER_NAME><REF_FRAME>TEME</REF_FRAME><TIME_SYSTEM>UTC</TIME_SYSTEM><MEAN_ELEMENT_THEORY>SGP4</MEAN_ELEMENT_THEORY></metadata><data><meanElements><EPOCH>2025-09-18T22:00:01.999584</EPOCH><MEAN_MOTION>15.34333775</MEAN_MOTION><ECCENTRICITY>.00045352</ECCENTRICITY><INCLINATION>51.8749</INCLINATION><RA_OF_ASC_NODE>219.5527</RA_OF_ASC_NODE><ARG_OF_PERICENTER>267.8058</ARG_OF_PERICENTER><MEAN_ANOMALY>76.1527</MEAN_ANOMALY></meanElements><tleParameters><EPHEMERIS_TYPE>0</EPHEMERIS_TYPE><CLASSIFICATION_TYPE>U</CLASSIFICATION_TYPE><NORAD_CAT_ID>65141</NORAD_CAT_ID><ELEMENT_SET_NO>999</ELEMENT_SET_NO><REV_AT_EPOCH>476</REV_AT_EPOCH><BSTAR>-.40231168E-1</BSTAR><MEAN_MOTION_DOT>-.1230515E-1</MEAN_MOTION_DOT><MEAN_MOTION_DDOT>0</MEAN_MOTION_DDOT></tleParameters></data></segment></body></omm>

</ndm>
