KUIPER-00095            
1 65134U 25171C   25261.46719880  .00033388  00000+0  94697-3 0  9996
2 65134  51.8740 221.7557 0003974 298.8651  61.1936 15.35918830  7081
KUIPER-00096            
1 65135U 25171D   25260.28983688  .00041004  00000+0  11477-2 0  9993
2 65135  51.8712 227.3641 0003839 270.4277  89.6270 15.36234708  6909
KUIPER-00097            
1 65136U 25171E   25261.46856901  .00029283  00000+0  83322-3 0  9996
2 65136  51.8709 221.7645 0003401 299.4593  60.6054 15.35886715  7073
KUIPER-00098            
1 65137U 25171F   25261.32246272  .00047201  00000+0  13079-2 0  9997
2 65137  51.8739 222.2928 0004602 253.8224 106.2256 15.36482624  6405
KUIPER-00099            
1 65138U 25171G   25261.32488775  .00031341  00000+0  87411-3 0  9994
2 65138  51.8754 222.3094 0004948 259.2329 100.8100 15.36471387  7051
KUIPER-00100            
1 65139U 25171H   25260.28919083  .00042051  00000+0  11788-2 0  9993
2 65139  51.8710 227.3605 0004207 269.7270  90.3234 15.36175027  6890
KUIPER-00102            
1 65140U 25171J   25261.27265758  .00028751  00000+0  81862-3 0  9990
2 65140  51.8789 222.6994 0005572 275.2406  84.7944 15.35867666  7045
KUIPER-00103            
1 65141U 25171K   25261.91668981 -.01230515  00000+0 -40231-1 0  9996
2 65141  51.8749 219.5527 0004535 267.8058  76.1527 15.34333775  4763
